NORAD_CAT_ID,OBJECT_NAME,OBJECT_TYPE,EPOCH,MEAN_MOTION,ECCENTRICITY,INCLINATION,RA_OF_ASC_NODE,ARG_OF_PERICENTER,MEAN_ANOMALY,BSTAR,MEAN_MOTION_DOT,MEAN_MOTION_DDOT,TLE_LINE0,TLE_LINE1,TLE_LINE2,SEMIMAJOR_AXIS,PERIOD,APOGEE,PERIGEE,DECAYED
54063.0,STARLINK-5225,PAYLOAD,2023-04-24 02:43:31,15.0885739,0.0001639,53.2164,20.2744,84.8131,275.3049,6.1334e-05,6.89e-06,0.0,0 STARLINK-5225,1 54063U 22136N   23114.11355360  .00000689  00000-0  61334-4 0  9991,2 54063  53.2164  20.2744 0001639  84.8131 275.3049 15.08857390 28729,6917.827,95.436,540.826,538.558,0.0
54063.0,STARLINK-5225,PAYLOAD,2023-04-25 00:58:52,15.0888699,0.0001556,53.2174,16.1105,65.8365,294.2789,0.00053771,8.291e-05,0.0,0 STARLINK-5225,1 54063U 22136N   23115.04088403  .00008291  00000-0  53771-3 0  9997,2 54063  53.2174  16.1105 0001556  65.8365 294.2789 15.08886990 28382,6917.737,95.435,540.678,538.525,0.0
54063.0,STARLINK-5225,PAYLOAD,2023-04-26 04:00:31,15.08765279,0.0001254,53.2172,11.0594,74.8811,285.232,-0.0011614,-0.00018686,0.0,0 STARLINK-5225,1 54063U 22136N   23116.16703328 -.00018686  00000-0 -11614-2 0  9991,2 54063  53.2172  11.0594 0001254  74.8811 285.2320 15.08765279 28553,6918.109,95.442,540.841,539.106,0.0
54063.0,STARLINK-5225,PAYLOAD,2023-04-26 16:43:34,15.0883353,0.0001417,53.2181,8.6755,85.3049,274.8105,-0.00019409,-3.375e-05,0.0,0 STARLINK-5225,1 54063U 22136N   23116.69692604 -.00003375  00000-0 -19409-3 0  9993,2 54063  53.2181   8.6755 0001417  85.3049 274.8105 15.08833530 28635,6917.9,95.438,540.745,538.785,0.0
54063.0,STARLINK-5225,PAYLOAD,2023-04-26 23:05:06,15.08852835,0.0002286,53.2173,7.4908,88.5482,271.5772,0.00016347,2.315e-05,0.0,0 STARLINK-5225,1 54063U 22136N   23116.96187871  .00002315  00000-0  16347-3 0  9997,2 54063  53.2173   7.4908 0002286  88.5482 271.5772 15.08852835 29155,6917.841,95.437,541.288,538.125,0.0
54063.0,STARLINK-5225,PAYLOAD,2023-04-27 16:34:22,15.08815367,0.0001143,53.2179,4.2176,79.3585,280.7536,0.00075305,0.00011709,0.0,0 STARLINK-5225,1 54063U 22136N   23117.69053319  .00011709  00000-0  75305-3 0  9993,2 54063  53.2179   4.2176 0001143  79.3585 280.7536 15.08815367 29267,6917.956,95.439,540.611,539.03,0.0
54063.0,STARLINK-5225,PAYLOAD,2023-04-28 02:06:40,15.08824999,0.0001185,53.2174,2.4323,84.6586,275.4541,0.00074142,0.00011527,0.0,0 STARLINK-5225,1 54063U 22136N   23118.08797283  .00011527  00000-0  74142-3 0  9998,2 54063  53.2174   2.4323 0001185  84.6586 275.4541 15.08824999 28843,6917.926,95.439,540.611,538.971,0.0
54063.0,STARLINK-5225,PAYLOAD,2023-04-28 21:11:18,15.08847349,0.0001125,53.2172,358.8643,68.1911,291.9201,-7.9442e-05,-1.552e-05,0.0,0 STARLINK-5225,1 54063U 22136N   23118.88285864 -.00001552  00000-0 -79442-4 0  9991,2 54063  53.2172 358.8643 0001125  68.1911 291.9201 15.08847349 29444,6917.858,95.437,540.501,538.945,0.0
54063.0,STARLINK-5225,PAYLOAD,2023-04-28 22:46:41,15.08848854,0.0001081,53.2171,358.5674,89.9886,270.123,-0.00010293,-1.926e-05,0.0,0 STARLINK-5225,1 54063U 22136N   23118.94909638 -.00001926  00000-0 -10293-3 0  9993,2 54063  53.2171 358.5674 0001081  89.9886 270.1230 15.08848854 28977,6917.853,95.437,540.466,538.971,0.0
54063.0,STARLINK-5225,PAYLOAD,2023-04-30 01:48:14,15.08854246,0.0001293,53.2166,353.5109,88.3563,271.7577,6.1069e-05,6.84e-06,0.0,0 STARLINK-5225,1 54063U 22136N   23120.07516333  .00000684  00000-0  61069-4 0  9992,2 54063  53.2166 353.5109 0001293  88.3563 271.7577 15.08854246 29625,6917.837,95.437,540.596,538.807,0.0
54063.0,STARLINK-5225,PAYLOAD,2023-04-30 20:52:52,15.08835458,0.0001145,53.2162,349.9408,92.8948,267.2175,1.8854e-05,1.2e-07,0.0,0 STARLINK-5225,1 54063U 22136N   23120.87005374  .00000012  00000-0  18854-4 0  9997,2 54063  53.2162 349.9408 0001145  92.8948 267.2175 15.08835458 29746,6917.894,95.438,540.551,538.967,0.0
54063.0,STARLINK-5225,PAYLOAD,2023-05-01 00:03:38,15.08839062,0.0001169,53.2163,349.3461,91.0816,269.031,6.1166e-05,6.86e-06,0.0,0 STARLINK-5225,1 54063U 22136N   23121.00253217  .00000686  00000-0  61166-4 0  9995,2 54063  53.2163 349.3461 0001169  91.0816 269.0310 15.08839062 29286,6917.883,95.438,540.557,538.94,0.0
54063.0,STARLINK-5225,PAYLOAD,2023-05-01 20:43:39,15.08842425,0.0001376,53.2173,345.4846,98.2148,261.9,4.2023e-05,3.81e-06,0.0,0 STARLINK-5225,1 54063U 22136N   23121.86365243  .00000381  00000-0  42023-4 0  9995,2 54063  53.2173 345.4846 0001376  98.2148 261.9000 15.08842425 29417,6917.873,95.437,540.69,538.786,0.0
54063.0,STARLINK-5225,PAYLOAD,2023-05-01 22:19:02,15.08843832,0.000128,53.2164,345.1863,88.7864,271.3275,6.7768e-05,7.91e-06,0.0,0 STARLINK-5225,1 54063U 22136N   23121.92989186  .00000791  00000-0  67768-4 0  9998,2 54063  53.2164 345.1863 0001280  88.7864 271.3275 15.08843832 29902,6917.869,95.437,540.619,538.848,0.0
54063.0,STARLINK-5225,PAYLOAD,2023-05-01 23:54:25,15.08846374,0.000134,53.2168,344.8884,97.4782,262.6363,0.00011687,1.573e-05,0.0,0 STARLINK-5225,1 54063U 22136N   23121.99613035  .00001573  00000-0  11687-3 0  9999,2 54063  53.2168 344.8884 0001340  97.4782 262.6363 15.08846374 29431,6917.861,95.437,540.653,538.799,0.0
54063.0,STARLINK-5225,PAYLOAD,2023-05-02 20:34:26,15.08843994,0.0001444,53.217,341.0249,95.4369,264.6788,0.00016541,2.346e-05,0.0,0 STARLINK-5225,1 54063U 22136N   23122.85725292  .00002346  00000-0  16541-3 0  9997,2 54063  53.2170 341.0249 0001444  95.4369 264.6788 15.08843994 29564,6917.868,95.437,540.732,538.734,0.0
54063.0,STARLINK-5225,PAYLOAD,2023-05-03 01:20:35,15.08855236,0.0001452,53.2175,340.1327,106.9809,253.1342,0.00029109,4.35e-05,0.0,0 STARLINK-5225,1 54063U 22136N   23123.05596580  .00004350  00000-0  29109-3 0  9997,2 54063  53.2175 340.1327 0001452 106.9809 253.1342 15.08855236 30071,6917.834,95.437,540.703,538.694,0.0
54063.0,STARLINK-5225,PAYLOAD,2023-05-03 07:42:08,15.08848194,0.0002194,53.2171,338.9478,70.4068,289.7161,0.00017935,2.568e-05,0.0,0 STARLINK-5225,1 54063U 22136N   23123.32093222  .00002568  00000-0  17935-3 0  9995,2 54063  53.2171 338.9478 0002194  70.4068 289.7161 15.08848194 30119,6917.855,95.437,541.238,538.203,0.0
54063.0,STARLINK-5225,PAYLOAD,2023-05-03 20:25:13,15.08851599,0.000154,53.2165,336.564,78.8113,281.3053,0.00017964,2.573e-05,0.0,0 STARLINK-5225,1 54063U 22136N   23123.85084577  .00002573  00000-0  17964-3 0  9994,2 54063  53.2165 336.5640 0001540  78.8113 281.3053 15.08851599 29719,6917.845,95.437,540.775,538.645,0.0
54063.0,STARLINK-5225,PAYLOAD,2023-05-04 01:11:21,15.08859785,0.0001469,53.2167,335.6702,83.6527,276.4632,0.00026336,3.908e-05,0.0,0 STARLINK-5225,1 54063U 22136N   23124.04955943  .00003908  00000-0  26336-3 0  9996,2 54063  53.2167 335.6702 0001469  83.6527 276.4632 15.08859785 30224,6917.82,95.436,540.701,538.669,0.0
54063.0,STARLINK-5225,PAYLOAD,2023-05-04 13:54:27,15.08838986,0.0001294,53.2177,333.2916,96.2849,263.829,-0.00014914,-2.661e-05,0.0,0 STARLINK-5225,1 54063U 22136N   23124.57948989 -.00002661  00000-0 -14914-3 0  9992,2 54063  53.2177 333.2916 0001294  96.2849 263.8290 15.08838986 30308,6917.883,95.438,540.644,538.853,0.0
54063.0,STARLINK-5225,PAYLOAD,2023-05-04 20:16:00,15.08842007,0.0001315,53.2166,332.1004,103.4719,256.642,-6.3298e-05,-1.295e-05,0.0,0 STARLINK-5225,1 54063U 22136N   23124.84444816 -.00001295  00000-0 -63298-4 0  9994,2 54063  53.2166 332.1004 0001315 103.4719 256.6420 15.08842007 29866,6917.874,95.437,540.649,538.83,0.0
54063.0,STARLINK-5225,PAYLOAD,2023-05-05 15:20:38,15.08835778,0.0001421,53.2155,328.5324,92.6646,267.4509,4.227e-05,3.85e-06,0.0,0 STARLINK-5225,1 54063U 22136N   23125.63933351  .00000385  00000-0  42270-4 0  9993,2 54063  53.2155 328.5324 0001421  92.6646 267.4509 15.08835778 30467,6917.893,95.438,540.741,538.775,0.0
54063.0,STARLINK-5225,PAYLOAD,2023-05-05 20:06:47,15.08839714,0.0001304,53.2162,327.6409,94.9982,265.1159,0.00012982,1.779e-05,0.0,0 STARLINK-5225,1 54063U 22136N   23125.83805310  .00001779  00000-0  12982-3 0  9992,2 54063  53.2162 327.6409 0001304  94.9982 265.1159 15.08839714 30018,6917.881,95.438,540.648,538.844,0.0
54063.0,STARLINK-5225,PAYLOAD,2023-05-05 23:17:33,15.0884285,0.0001399,53.2161,327.0452,103.036,257.0788,0.00021038,3.062e-05,0.0,0 STARLINK-5225,1 54063U 22136N   23125.97053235  .00003062  00000-0  21038-3 0  9997,2 54063  53.2161 327.0452 0001399 103.0360 257.0788 15.08842850 30030,6917.872,95.437,540.704,538.769,0.0
54063.0,STARLINK-5225,PAYLOAD,2023-05-06 19:57:35,15.0884738,0.0001247,53.2158,323.1798,84.1318,275.9816,0.0004139,6.307e-05,0.0,0 STARLINK-5225,1 54063U 22136N   23126.83165531  .00006307  00000-0  41390-3 0  9994,2 54063  53.2158 323.1798 0001247  84.1318 275.9816 15.08847380 30641,6917.858,95.437,540.585,538.86,0.0
54063.0,STARLINK-5225,PAYLOAD,2023-05-07 05:29:53,15.08843281,9.97e-05,53.2149,321.3958,74.3341,285.7762,0.00025647,3.797e-05,0.0,0 STARLINK-5225,1 54063U 22136N   23127.22909629  .00003797  00000-0  25647-3 0  9999,2 54063  53.2149 321.3958 0000997  74.3341 285.7762 15.08843281 30709,6917.87,95.437,540.425,539.046,0.0
54063.0,STARLINK-5225,PAYLOAD,2023-05-07 19:48:22,15.08837101,0.0001248,53.2151,318.7205,80.045,280.0683,0.00010469,1.379e-05,0.0,0 STARLINK-5225,1 54063U 22136N   23127.82526106  .00001379  00000-0  10469-3 0  9990,2 54063  53.2151 318.7205 0001248  80.0450 280.0683 15.08837101 30795,6917.889,95.438,540.618,538.891,0.0
54063.0,STARLINK-5225,PAYLOAD,2023-05-08 19:39:08,15.08860866,0.0001221,53.2144,314.26,93.504,266.6091,0.00034736,5.248e-05,0.0,0 STARLINK-5225,1 54063U 22136N   23128.81884951  .00005248  00000-0  34736-3 0  9997,2 54063  53.2144 314.2600 0001221  93.5040 266.6091 15.08860866 30946,6917.817,95.436,540.526,538.837,0.0
54063.0,STARLINK-5225,PAYLOAD,2023-05-09 05:11:27,15.08848471,0.0001235,53.2159,312.4788,102.7568,257.3562,0.0001837,2.638e-05,0.0,0 STARLINK-5225,1 54063U 22136N   23129.21629378  .00002638  00000-0  18370-3 0  9998,2 54063  53.2159 312.4788 0001235 102.7568 257.3562 15.08848471 31008,6917.854,95.437,540.574,538.865,0.0
